# From MPEC 2021-P47
P/2019 A2 (ATLAS),e,14.8619,139.4377,323.8526,5.713323,0.0721724,0.38233001,120.3945,06/16.0/2023,2000,g 10.5,4.0
# From MPEC 2022-M21
P/2019 A3 (PANSTARRS),e,15.3751,31.2937,325.6810,3.143958,0.1768028,0.26607998,313.9293,06/16.0/2023,2000,g 16.0,4.0
# From MPEC 2022-L66
P/2019 A4 (PANSTARRS),e,13.3061,119.2430,343.0490,2.613579,0.2332656,0.08714064,24.3940,06/16.0/2023,2000,g 15.0,4.0
# From MPEC 2021-P47
C/2019 A5 (PANSTARRS),e,67.5509,146.5985,355.7930,21.48374,0.0098978,0.70611663,14.5543,06/16.0/2023,2000,g  9.5,4.0
# From MPC114605
P/2019 A6 (Lemmon-PANSTARRS),e,33.2732,280.1880,156.1991,5.357537,0.0794797,0.64000618,139.1366,06/16.0/2023,2000,g 16.0,4.0
# From MPC115884
P/2019 A8 (PANSTARRS),e,2.1826,113.8798,65.8152,4.304803,0.1103505,0.23414635,200.5613,06/16.0/2023,2000,g 16.0,4.0
# From MPC118842
C/2019 A9 (PANSTARRS),e,84.2737,278.4157,237.9171,39.13879,0.0040253,0.96344816,5.7200,06/16.0/2023,2000,g 15.0,4.0
# From MPEC 2022-L66
C/2019 B1 (Africano),e,123.4210,290.3574,174.7682,137.5041,0.0006113,0.98837551,0.0000,03/18.5246/2019,2000,g 16.0,4.0
# From MPC115885
P/2019 B2 (Groeller),e,17.0020,175.7460,0.9687,3.916390,0.1271672,0.35973530,188.3445,06/16.0/2023,2000,g 14.5,4.0
# From MPEC 2023-HD1
C/2019 B3 (PANSTARRS),e,66.5399,358.4320,263.9690,27317,0.0000002,0.99975013,0.0000,01/20.3195/2021,2000,g  9.4,4.0
# From MPEC 2021-P47
C/2019 C1 (ATLAS),e,36.0513,212.3921,319.0663,645.2281,0.0000601,0.98980918,0.0000,05/04.2418/2020,2000,g 10.0,4.0
# From MPEC 2022-O08
C/2019 D1 (Flewelling),e,34.0060,231.6579,70.6934,142.0448,0.0005822,0.98883067,0.0000,05/11.0354/2019,2000,g 13.0,4.0
# From MPEC 2023-KD6
C/2019 E3 (ATLAS),e,84.2973,347.2430,280.6885,19085,0.0000004,0.99945963,0.0000,11/15.0267/2023,2000,g  2.5,4.0
# From MPEC 2023-CD7
C/2019 F1 (ATLAS-Africano),h,06/22.9117/2021,54.2323,38.6651,251.3124,1.002800,3.603191,2000,5.5,4.0
# From MPEC 2021-P47
C/2019 F2 (ATLAS),e,19.2789,175.4410,11.6359,16.61894,0.0145479,0.86483451,20.0356,06/16.0/2023,2000,g 12.0,4.0
# From MPEC 2021-P47
A/2019 G2,e,159.2145,208.1611,82.6064,432.6639,0.0001095,0.99469752,0.0000,12/08.4134/2019,2000,g 16.5,2.0
# From MPEC 2022-VC5
A/2019 G3,e,156.8063,49.8994,161.9045,17.20089,0.0138158,0.83448316,22.8583,06/16.0/2023,2000,g 17.1,2.0
# From MPEC 2022-P82
C/2019 G4 (PANSTARRS),h,09/15.6451/2018,138.3481,130.4490,287.7526,1.001589,5.847745,2000,9.5,4.0
# From MPC114607
P/2019 GG21 (PANSTARRS),e,6.0865,340.5555,208.5997,7.468940,0.0482854,0.47183943,72.3305,06/16.0/2023,2000,g 12.0,4.0
# From MPEC 2022-M21
C/2019 H1 (NEOWISE),e,104.4466,269.2743,19.3340,246.2169,0.0002551,0.99250817,0.0000,04/27.9498/2019,2000,g 15.5,4.0
# From MPEC 2023-A50
C/2019 J1 (Lemmon),e,24.5392,98.1650,167.7341,68.26974,0.0017473,0.96359794,2.6739,06/16.0/2023,2000,g 12.0,4.0
# From MPEC 2021-R75
C/2019 J2 (Palomar),e,105.2341,25.5618,98.6834,162.0138,0.0004779,0.98937671,0.0000,07/20.4474/2019,2000,g 13.0,4.0
# From MPC117071
C/2019 J3 (ATLAS),h,08/02.4358/2019,131.3476,270.6089,16.6041,1.000613,2.370487,2000,13.5,4.0
# From MPEC 2022-M21
C/2019 JU6 (ATLAS),h,06/01.9745/2019,148.3316,21.7662,94.9901,1.000060,2.043702,2000,14.5,4.0
# From MPEC 2022-O08
C/2019 K1 (ATLAS),e,87.0501,73.3353,265.7257,9919,0.0000010,0.99979694,0.0000,02/12.6434/2020,2000,g 10.0,4.0
# From MPC119997
C/2019 K4 (Ye),e,105.2970,180.1537,139.8906,1391,0.0000190,0.99836839,0.0000,06/15.5703/2019,2000,g 12.5,4.0
# From MPEC 2021-P47
C/2019 K5 (Young),e,15.3176,177.1354,175.1467,168.4765,0.0004507,0.98787371,0.0000,06/22.9535/2019,2000,g 13.0,4.0
# From MPEC 2021-P47
C/2019 K6 (PANSTARRS),e,132.3809,42.9968,187.5797,1502,0.0000169,0.99738691,0.0000,05/19.9513/2020,2000,g 11.5,4.0
# From MPEC 2023-L37
C/2019 K7 (Smith),h,06/17.6223/2020,103.5297,307.9693,27.4048,1.000943,4.478353,2000,6.0,4.0
# From MPEC 2021-R75
C/2019 K8 (ATLAS),e,93.1347,291.0265,85.3788,2602,0.0000074,0.99877266,0.0000,07/21.7311/2019,2000,g 11.5,4.0
# From MPEC 2023-A50
C/2019 L1 (PANSTARRS),e,9.9791,254.4300,50.0538,9.839744,0.0319322,0.70529602,44.8806,06/16.0/2023,2000,g 13.5,4.0
# From MPC115886
C/2019 L2 (NEOWISE),e,152.2099,12.5489,18.8460,25.04154,0.0078652,0.93506291,12.0809,06/16.0/2023,2000,g 16.0,4.0
# From MPEC 2023-HD1
P/2019 LD2 (ATLAS),e,11.6185,179.5747,119.7399,5.216914,0.0827149,0.12659145,99.2031,06/16.0/2023,2000,g 12.0,4.0
# From MPEC 2023-L37
C/2019 L3 (ATLAS),h,01/09.6819/2022,48.3486,290.7738,171.6254,1.002159,3.554499,2000,4.5,4.0
# From MPC118095
C/2019 LB7 (Kleyna),e,164.2913,3.8906,336.5842,34.70001,0.0048218,0.92818600,7.4387,06/16.0/2023,2000,g 17.0,4.0
# From MPEC 2022-O08
P/2019 M2 (ATLAS),e,12.2701,307.6160,332.5478,3.028963,0.1869662,0.64738816,272.0981,06/16.0/2023,2000,g 21.2,4.0
# From MPC118095
C/2019 M3 (ATLAS),e,99.5206,154.9351,87.8971,6367,0.0000019,0.99961956,0.0000,12/31.8612/2018,2000,g 12.2,4.0
# From MPEC 2023-JA2
C/2019 M4 (TESS),h,09/12.3873/2019,65.6829,52.6452,260.3731,1.003774,9.188041,2000,5.0,4.0
# From MPEC 2023-C45
C/2019 N1 (ATLAS),e,82.4324,13.5714,193.4137,1563,0.0000159,0.99890919,0.0000,12/01.2603/2020,2000,g  7.5,4.0
# From MPEC 2023-CD8
A/2019 N2,e,89.3824,276.1296,347.1920,1614,0.0000152,0.99879351,0.0000,08/22.7457/2019,2000,g 12.5,2.0
# From MPEC 2022-A21
C/2019 NJ3 (Lemmon),h,10/22.9518/2020,99.4149,142.4716,246.9122,1.002514,4.362786,2000,9.0,4.0
# From MPEC 2023-L37
A/2019 O2,e,93.3087,48.2612,129.6348,57.96616,0.0022333,0.83295798,0.1561,06/16.0/2023,2000,g  9.5,2.0
# From MPEC 2023-L37
C/2019 O3 (Palomar),h,03/09.6104/2021,89.8181,300.4240,60.1301,1.004385,8.821090,2000,3.5,4.0
# From MPEC 2021-P47
A/2019 O4,e,115.0869,354.9101,61.9047,33.30282,0.0051284,0.89051992,6.2622,06/16.0/2023,2000,g 15.5,2.0
# From MPEC 2023-A50
C/2019 Q1 (Lemmon),h,07/20.7955/2020,155.7299,42.4592,56.2010,1.000865,5.003238,2000,8.5,4.0
# From MPC117072
A/2019 Q2,e,159.0281,188.0132,176.4004,57.94042,0.0022348,0.97820074,0.0000,07/22.1432/2019,2000,g 18.0,2.0
# From MPC117072
C/2019 Q3 (PANSTARRS),h,08/21.2983/2018,65.5413,151.3433,152.7975,1.002474,7.266913,2000,8.5,4.0
# From MPC117072
P/2019 S2 (PANSTARRS),e,10.4655,93.1384,217.1581,4.743090,0.0954140,0.20561576,150.3066,06/16.0/2023,2000,g 13.5,4.0
# From MPEC 2022-CN4
P/2019 S3 (PANSTARRS),e,8.6925,150.1492,213.0616,3.415379,0.1561513,0.47116612,216.8517,06/16.0/2023,2000,g 18.3,4.0
# From MPEC 2021-S45
C/2019 S4 (Lemmon),e,92.0850,63.1485,71.3779,235.1309,0.0002734,0.98535974,0.0000,04/08.1064/2020,2000,g 11.0,4.0
# From MPEC 2023-KD6
A/2019 T1,e,120.8747,6.9449,91.0707,38.76807,0.0040831,0.88956653,3.6019,06/16.0/2023,2000,g 13.0,2.0
# From MPEC 2023-KD6
C/2019 T2 (Lemmon),e,111.4705,155.6509,239.4313,4284,0.0000035,0.99938236,0.0000,04/22.5492/2021,2000,g  9.0,4.0
# From MPEC 2022-WQ9
C/2019 T3 (ATLAS),e,121.8420,139.5322,112.4531,3545,0.0000047,0.99832097,0.0000,03/04.3091/2021,2000,g  6.8,4.0
# From MPEC 2023-L37
C/2019 T4 (ATLAS),e,53.6319,199.9390,351.1663,949.1652,0.0000337,0.99553098,0.0000,06/08.9215/2022,2000,g  5.0,4.0
# From MPEC 2021-P47
P/2019 T5 (ATLAS),e,33.4927,247.6228,189.5684,7.997816,0.0435760,0.80957007,61.6203,06/16.0/2023,2000,g 15.0,4.0
# From MPEC 2021-P47
P/2019 T6 (PANSTARRS),e,18.7029,71.2184,329.0073,5.438071,0.0777207,0.62306536,102.2314,06/16.0/2023,2000,g 15.5,4.0
# From MPC118096
P/2019 U4 (PANSTARRS),e,11.7006,200.0008,181.0336,3.520155,0.1492318,0.47601518,203.7537,06/16.0/2023,2000,g 19.0,4.0
# From MPEC 2023-L37
C/2019 U5 (PANSTARRS),h,03/29.8238/2023,113.5192,2.6372,181.4916,1.001408,3.624184,2000,4.5,4.0
# From MPEC 2022-H04
C/2019 U6 (Lemmon),e,60.9761,235.7659,329.5653,336.8719,0.0001594,0.99728937,0.0000,06/18.4008/2020,2000,g 10.0,4.0
# From MPEC 2022-N37
C/2019 V1 (Borisov),e,61.9108,83.1659,51.1619,1539,0.0000163,0.99798865,0.0000,07/16.4503/2020,2000,g 11.0,4.0
# From MPEC 2022-L66
P/2019 V2 (Groeller),e,11.8082,189.1844,335.7420,7.499159,0.0479938,0.33113334,46.6344,06/16.0/2023,2000,g 10.0,4.0
# From MPEC 2023-A50
P/2019 W1 (PANSTARRS),e,23.4753,35.3767,18.7324,4.549144,0.1015803,0.26713007,152.2451,06/16.0/2023,2000,g 12.9,4.0
# From MPEC 2021-P47
P/2019 X1 (Pruyne),e,10.2503,43.6643,36.8114,6.174363,0.0642415,0.30369108,91.5318,06/16.0/2023,2000,g 10.4,4.0
# From MPC119999
C/2019 Y1 (ATLAS),e,73.3584,31.5569,57.9104,86.59694,0.0012231,0.99042882,0.0000,03/16.0760/2020,2000,g 13.7,4.0
# From MPEC 2022-YN2
C/2019 Y4 (ATLAS),e,45.2127,120.6627,177.4526,353.6301,0.0001482,0.99927827,0.0000,05/30.8567/2020,2000,g 11.8,6.0
# From MPEC 2020-L06
C/2019 Y4-A (ATLAS),h,05/30.8844/2020,45.6553,121.0243,177.2864,1.001419,0.253379,2000,11.6,6.0
# From MPEC 2023-J29
C/2019 Y4-B (ATLAS),h,05/30.8620/2020,45.3435,120.7688,177.3967,1.000021,0.254693,2000,12.1,6.0
# From MPEC 2020-L06
C/2019 Y4-C (ATLAS),h,05/30.8387/2020,45.4377,120.7508,177.3197,1.002143,0.254447,2000,12.7,6.0
# From MPEC 2020-L06
C/2019 Y4-D (ATLAS),e,45.4826,121.1249,177.4578,68.42054,0.0017415,0.99629090,0.0000,05/30.9629/2020,2000,g 12.5,6.0
# From MPEC 2023-A50
C/2019 Y5 (PANSTARRS),e,82.7679,51.7562,303.5643,751.4950,0.0000478,0.99345260,0.0000,08/17.9027/2019,2000,g 11.0,4.0
# From MPEC 2023-A50
A/2020 A1,e,149.0371,119.2006,302.5060,25.64477,0.0075894,0.93501157,9.8035,06/16.0/2023,2000,g 18.0,2.0
# From MPEC 2022-YN2
C/2020 A2 (NEOWISE),e,120.6281,286.2978,68.0894,1400,0.0000188,0.99930399,0.0000,01/08.5062/2020,2000,g 13.5,4.0
# From MPEC 2023-A50
C/2020 A3 (ATLAS),h,06/29.0928/2019,146.6678,120.8045,268.3690,1.000832,5.760069,2000,8.0,4.0
# From MPEC 2022-P91
P/2020 A4 (PANSTARRS-Lemmon),e,24.9910,312.3736,144.7725,8.194146,0.0420193,0.65401614,54.6673,06/16.0/2023,2000,g 15.0,4.0
# From MPEC 2020-N08
A/2020 B1,e,18.5201,309.9454,154.7297,51.42509,0.0026726,0.96615015,3.3879,06/16.0/2023,2000,g 21.0,2.0
# From MPEC 2022-N37
C/2020 B3 (Rankin),e,20.7095,185.8457,324.9090,944.9555,0.0000339,0.99646949,0.0000,10/19.4600/2019,2000,g 13.0,4.0
# From MPEC 2023-KD6
P/2020 B4 (Sheppard),e,11.6091,185.9789,342.0688,7.966687,0.0438316,0.19182786,25.1482,06/16.0/2023,2000,g 10.5,4.0
